     3.02           N: GNSS NAV DATA    C: BDS              RINEX VERSION / TYPE
cnvtToRINEX 2.60.0  REGINA              03-Jan-17 01:01 UTC PGM / RUN BY / DATE 
----------------------------------------------------------- COMMENT             
BDUT   -0.931322574615D-09-0.177635683940D-14 405504 1930   TIME SYSTEM CORR    
     4                                                      LEAP SECONDS        
                                                            END OF HEADER       
C 7 2017 01 03 00 00 00 -0.631139846519D-04 -0.842437231086D-11 -0.189735380185D-18
     0.300000000000D+01 0.587812500000D+02 0.101539943832D-08 0.106860169774D+01
     0.218069180846D-05 0.500344845932D-02 0.207033008337D-04 0.649314246750D+04
     0.172800000000D+06 -0.126194208860D-06 -0.257723479958D+01 -0.182073563337D-06
     0.931466520828D+00 -0.403046875000D+03 -0.265997219573D+01 -0.186936358078D-08
    -0.625383192577D-09 0.000000000000D+00 0.574000000000D+03 0.000000000000D+00
     0.240000000000D+01 0.000000000000D+00 0.166999996054D-07 0.140000000000D+02
     0.172800000000D+06 0.200000000000D+01 0.000000000000D+00 0.000000000000D+00
C 8 2017 01 03 00 00 00 -0.779803725891D-03 -0.225126584041D-10 0.000000000000D+00
     0.100000000000D+01 -0.302859375000D+03 0.135219918167D-08 -0.108313954271D+01
    -0.102096237242D-04 0.263903965242D-02 -0.355951488018D-05 0.649382725525D+04
     0.172800000000D+06 0.842846930027D-07 -0.455863780876D+00 0.852160155773D-07
     0.100606232144D+01 0.362750000000D+03 -0.265225697351D+01 -0.252939107358D-08
    -0.227866634417D-09 0.000000000000D+00 0.574000000000D+03 0.000000000000D+00
     0.240000000000D+01 0.000000000000D+00 0.146000003198D-07 0.102300000000D+04
     0.172800000000D+06 0.000000000000D+00 0.000000000000D+00 0.000000000000D+00
C 4 2017 01 03 00 00 00 -0.150051200762D-04 0.270405919878D-10 0.000000000000D+00
     0.100000000000D+01 -0.651828125000D+03 0.234795494461D-08 0.530059028663D+00
    -0.212821178138D-04 0.748340156861D-03 0.202842056751D-05 0.649343190384D+04
     0.172800000000D+06 0.142492353916D-06 -0.295776357466D+01 -0.754371285439D-07
     0.806124608269D-01 -0.538593750000D+02 -0.102689345126D+01 -0.146006081739D-08
    -0.386801826134D-09 0.000000000000D+00 0.574000000000D+03 0.000000000000D+00
     0.240000000000D+01 0.000000000000D+00 0.580000003580D-08 0.942000000000D+03
     0.172800000000D+06 0.000000000000D+00 0.000000000000D+00 0.000000000000D+00
C 1 2017 01 03 00 00 00 -0.130284344777D-03 0.392450516529D-10 0.000000000000D+00
     0.100000000000D+01 -0.510687500000D+03 0.253974864787D-08 -0.519176182115D-01
    -0.167735852301D-04 0.473479158245D-03 0.923173502088D-05 0.649350432205D+04
     0.172800000000D+06 0.214204192162D-07 -0.280884985034D+01 -0.274740159512D-07
     0.924957487735D-01 -0.276593750000D+03 -0.942527487893D+00 -0.150041964136D-08
    -0.351800368183D-09 0.000000000000D+00 0.574000000000D+03 0.000000000000D+00
     0.240000000000D+01 0.000000000000D+00 0.142000002867D-07 0.920000000000D+03
     0.172800000000D+06 0.000000000000D+00 0.000000000000D+00 0.000000000000D+00
